{
  "norad_id": 52444,
  "name": "JILIN-1 GAOFEN 3D27",
  "history": [
    {
      "epoch": "2026-04-30T14:52:25.530816Z",
      "apogee_km": 373.1419763815984,
      "perigee_km": 365.67460296042645,
      "latitude_deg": -6.8635649806658e-05,
      "longitude_deg": 148.96655117123956,
      "height_km": 376.00203456562707,
      "semi_major_axis_km": 6747.545289671012,
      "eccentricity": 0.00055334,
      "inclination_deg": 97.5671,
      "raan_deg": 230.6368,
      "arg_perigee_deg": 202.7999,
      "mean_anomaly_deg": 157.3015,
      "mean_motion_rev_day": 15.66332826
    },
    {
      "epoch": "2026-05-02T11:19:58.059264Z",
      "apogee_km": 372.1060051264658,
      "perigee_km": 364.60255752337616,
      "latitude_deg": 5.472461281470338e-06,
      "longitude_deg": -157.75206410984853,
      "height_km": 375.0802138902818,
      "semi_major_axis_km": 6746.49128132492,
      "eccentricity": 0.0005561,
      "inclination_deg": 97.5675,
      "raan_deg": 232.6296,
      "arg_perigee_deg": 197.6966,
      "mean_anomaly_deg": 162.4101,
      "mean_motion_rev_day": 15.66699904
    },
    {
      "epoch": "2026-05-03T19:31:16.189248Z",
      "apogee_km": 371.3811520012323,
      "perigee_km": 363.948627479117,
      "latitude_deg": 1.065068049151797e-05,
      "longitude_deg": 79.54416062354424,
      "height_km": 374.4131751757063,
      "semi_major_axis_km": 6745.801889740174,
      "eccentricity": 0.0005509,
      "inclination_deg": 97.5673,
      "raan_deg": 234.0733,
      "arg_perigee_deg": 194.5794,
      "mean_anomaly_deg": 165.5308,
      "mean_motion_rev_day": 15.66940075
    },
    {
      "epoch": "2026-05-04T20:02:32.728128Z",
      "apogee_km": 370.81391745074507,
      "perigee_km": 363.47370287312697,
      "latitude_deg": 3.327500389296792e-05,
      "longitude_deg": 71.81818969191065,
      "height_km": 373.88455234731384,
      "semi_major_axis_km": 6745.280810161936,
      "eccentricity": 0.0005441,
      "inclination_deg": 97.5672,
      "raan_deg": 235.1733,
      "arg_perigee_deg": 192.0574,
      "mean_anomaly_deg": 168.0557,
      "mean_motion_rev_day": 15.6712165
    },
    {
      "epoch": "2026-05-05T20:33:37.731744Z",
      "apogee_km": 370.25990528499915,
      "perigee_km": 362.8259190857889,
      "latitude_deg": 2.6019422441602667e-05,
      "longitude_deg": 64.14071755433652,
      "height_km": 373.3574755963642,
      "semi_major_axis_km": 6744.679912185394,
      "eccentricity": 0.0005511,
      "inclination_deg": 97.5674,
      "raan_deg": 236.2736,
      "arg_perigee_deg": 189.7834,
      "mean_anomaly_deg": 170.332,
      "mean_motion_rev_day": 15.67331082
    },
    {
      "epoch": "2026-05-06T19:32:37.144320Z",
      "apogee_km": 369.85422206109433,
      "perigee_km": 362.42877143617534,
      "latitude_deg": -1.0913584070087798e-05,
      "longitude_deg": 79.4811811155145,
      "height_km": 372.98000307899565,
      "semi_major_axis_km": 6744.278496748635,
      "eccentricity": 0.0005505,
      "inclination_deg": 97.5669,
      "raan_deg": 237.3055,
      "arg_perigee_deg": 186.7399,
      "mean_anomaly_deg": 173.3788,
      "mean_motion_rev_day": 15.67471014
    },
    {
      "epoch": "2026-05-07T20:03:25.100352Z",
      "apogee_km": 369.4494358388001,
      "perigee_km": 362.07700411831956,
      "latitude_deg": -5.9740408605318e-05,
      "longitude_deg": 71.87524084206693,
      "height_km": 372.59212500378965,
      "semi_major_axis_km": 6743.900219978559,
      "eccentricity": 0.0005466,
      "inclination_deg": 97.5668,
      "raan_deg": 238.4061,
      "arg_perigee_deg": 183.9023,
      "mean_anomaly_deg": 176.2195,
      "mean_motion_rev_day": 15.67602899
    },
    {
      "epoch": "2026-05-08T20:34:04.768896Z",
      "apogee_km": 368.9942117191604,
      "perigee_km": 361.5939704398097,
      "latitude_deg": -2.116106055812597e-05,
      "longitude_deg": 64.304115379726,
      "height_km": 372.1442463273412,
      "semi_major_axis_km": 6743.431091079485,
      "eccentricity": 0.0005487,
      "inclination_deg": 97.5669,
      "raan_deg": 239.5069,
      "arg_perigee_deg": 181.3778,
      "mean_anomaly_deg": 178.7468,
      "mean_motion_rev_day": 15.67766485
    },
    {
      "epoch": "2026-05-09T19:32:41.536032Z",
      "apogee_km": 368.63183501280764,
      "perigee_km": 361.21986033064604,
      "latitude_deg": 3.4007744803292684e-05,
      "longitude_deg": 79.73958276490183,
      "height_km": 371.78112443246647,
      "semi_major_axis_km": 6743.062847671727,
      "eccentricity": 0.0005496,
      "inclination_deg": 97.5667,
      "raan_deg": 240.5392,
      "arg_perigee_deg": 178.3401,
      "mean_anomaly_deg": 181.7879,
      "mean_motion_rev_day": 15.67894912
    },
    {
      "epoch": "2026-05-10T20:03:05.789952Z",
      "apogee_km": 368.2576258233157,
      "perigee_km": 360.8797572556341,
      "latitude_deg": 1.7140921883779735e-05,
      "longitude_deg": 72.23316984818031,
      "height_km": 371.3958065241501,
      "semi_major_axis_km": 6742.705691539475,
      "eccentricity": 0.0005471,
      "inclination_deg": 97.5666,
      "raan_deg": 241.6403,
      "arg_perigee_deg": 175.3028,
      "mean_anomaly_deg": 184.8285,
      "mean_motion_rev_day": 15.68019489
    },
    {
      "epoch": "2026-05-11T20:33:23.095584Z",
      "apogee_km": 367.8962394480941,
      "perigee_km": 360.52415702154485,
      "latitude_deg": 4.456889690782407e-05,
      "longitude_deg": 64.75568249157006,
      "height_km": 371.0179153436522,
      "semi_major_axis_km": 6742.347198234819,
      "eccentricity": 0.0005467,
      "inclination_deg": 97.5671,
      "raan_deg": 242.7413,
      "arg_perigee_deg": 172.8484,
      "mean_anomaly_deg": 187.2856,
      "mean_motion_rev_day": 15.68144549
    },
    {
      "epoch": "2026-05-12T19:31:40.584288Z",
      "apogee_km": 367.59899074944406,
      "perigee_km": 360.2002797459245,
      "latitude_deg": -3.0879769013251225e-05,
      "longitude_deg": 80.27181626458017,
      "height_km": 370.692331499648,
      "semi_major_axis_km": 6742.036635247684,
      "eccentricity": 0.0005487,
      "inclination_deg": 97.5672,
      "raan_deg": 243.7737,
      "arg_perigee_deg": 169.9538,
      "mean_anomaly_deg": 190.1833,
      "mean_motion_rev_day": 15.68252902
    },
    {
      "epoch": "2026-05-13T20:01:45.131232Z",
      "apogee_km": 367.2342473446797,
      "perigee_km": 359.90196886910326,
      "latitude_deg": 5.833600599179525e-05,
      "longitude_deg": 72.84782840400241,
      "height_km": 370.2864899936054,
      "semi_major_axis_km": 6741.705108106891,
      "eccentricity": 0.0005438,
      "inclination_deg": 97.5674,
      "raan_deg": 244.8749,
      "arg_perigee_deg": 166.7587,
      "mean_anomaly_deg": 193.3818,
      "mean_motion_rev_day": 15.68368583
    },
    {
      "epoch": "2026-05-14T06:44:52.524672Z",
      "apogee_km": 367.1307728247548,
      "perigee_km": 359.69282203654893,
      "latitude_deg": -4.534403810836737e-05,
      "longitude_deg": -87.89166593872847,
      "height_km": 370.1672667559338,
      "semi_major_axis_km": 6741.548797430652,
      "eccentricity": 0.00055165,
      "inclination_deg": 97.5678,
      "raan_deg": 245.3564,
      "arg_perigee_deg": 165.8317,
      "mean_anomaly_deg": 194.3099,
      "mean_motion_rev_day": 15.6842313
    },
    {
      "epoch": "2026-05-15T07:14:47.473440Z",
      "apogee_km": 366.80643060876446,
      "perigee_km": 359.3674899685857,
      "latitude_deg": 1.2944167081321698e-07,
      "longitude_deg": -95.27534686422804,
      "height_km": 369.79972801885737,
      "semi_major_axis_km": 6741.223960288675,
      "eccentricity": 0.00055175,
      "inclination_deg": 97.5685,
      "raan_deg": 246.4578,
      "arg_perigee_deg": 163.3444,
      "mean_anomaly_deg": 196.7999,
      "mean_motion_rev_day": 15.68536497
    }
  ]
}